{"fetched_at":"2026-07-17T17:38:23.882Z","source":"https://celestrak.org/NORAD/elements/gp.php?NAME=KINEIS&FORMAT=JSON","constellation":"kineis","records":[{"OBJECT_NAME":"KINEIS-2D","OBJECT_ID":"2025-028C","EPOCH":"2026-07-17T02:08:49.277472","CLASSIFICATION_TYPE":"U","MEAN_MOTION":14.75772222,"ECCENTRICITY":0.00047687,"INCLINATION":97.9271,"RA_OF_ASC_NODE":249.9584,"ARG_OF_PERICENTER":105.6739,"MEAN_ANOMALY":254.4997,"EPHEMERIS_TYPE":0,"NORAD_CAT_ID":62930,"ELEMENT_SET_NO":999,"REV_AT_EPOCH":7712,"BSTAR":0.00012000828,"MEAN_MOTION_DOT":0.00000772,"MEAN_MOTION_DDOT":0},{"OBJECT_NAME":"KINEIS-2E","OBJECT_ID":"2025-028D","EPOCH":"2026-07-16T23:08:42.402624","CLASSIFICATION_TYPE":"U","MEAN_MOTION":14.77090174,"ECCENTRICITY":0.00021212,"INCLINATION":97.894,"RA_OF_ASC_NODE":248.9626,"ARG_OF_PERICENTER":93.3506,"MEAN_ANOMALY":266.7947,"EPHEMERIS_TYPE":0,"NORAD_CAT_ID":62931,"ELEMENT_SET_NO":999,"REV_AT_EPOCH":7717,"BSTAR":0.00010226752,"MEAN_MOTION_DOT":0.00000672,"MEAN_MOTION_DDOT":0},{"OBJECT_NAME":"KINEIS-2A","OBJECT_ID":"2025-028E","EPOCH":"2026-07-17T02:40:14.138400","CLASSIFICATION_TYPE":"U","MEAN_MOTION":14.73453376,"ECCENTRICITY":0.00059435,"INCLINATION":98.1287,"RA_OF_ASC_NODE":253.5441,"ARG_OF_PERICENTER":79.214,"MEAN_ANOMALY":280.9737,"EPHEMERIS_TYPE":0,"NORAD_CAT_ID":62932,"ELEMENT_SET_NO":999,"REV_AT_EPOCH":7701,"BSTAR":0.00010409813,"MEAN_MOTION_DOT":0.00000624,"MEAN_MOTION_DDOT":0},{"OBJECT_NAME":"KINEIS-2B","OBJECT_ID":"2025-028G","EPOCH":"2026-07-17T02:07:39.742752","CLASSIFICATION_TYPE":"U","MEAN_MOTION":14.73453841,"ECCENTRICITY":0.00047782,"INCLINATION":97.9653,"RA_OF_ASC_NODE":250.4067,"ARG_OF_PERICENTER":69.5986,"MEAN_ANOMALY":290.5735,"EPHEMERIS_TYPE":0,"NORAD_CAT_ID":62934,"ELEMENT_SET_NO":999,"REV_AT_EPOCH":7706,"BSTAR":0.000099976797,"MEAN_MOTION_DOT":0.00000599,"MEAN_MOTION_DDOT":0},{"OBJECT_NAME":"KINEIS-4E","OBJECT_ID":"2025-056A","EPOCH":"2026-07-17T06:55:18.825312","CLASSIFICATION_TYPE":"U","MEAN_MOTION":14.72306162,"ECCENTRICITY":0.00029313,"INCLINATION":97.907,"RA_OF_ASC_NODE":321.3535,"ARG_OF_PERICENTER":82.5627,"MEAN_ANOMALY":277.5913,"EPHEMERIS_TYPE":0,"NORAD_CAT_ID":63300,"ELEMENT_SET_NO":999,"REV_AT_EPOCH":7155,"BSTAR":0.00011875907,"MEAN_MOTION_DOT":0.00000702,"MEAN_MOTION_DDOT":0},{"OBJECT_NAME":"KINEIS-4C","OBJECT_ID":"2025-056B","EPOCH":"2026-07-17T07:13:05.817792","CLASSIFICATION_TYPE":"U","MEAN_MOTION":14.7232811,"ECCENTRICITY":0.00029532,"INCLINATION":97.9124,"RA_OF_ASC_NODE":321.6159,"ARG_OF_PERICENTER":204.0548,"MEAN_ANOMALY":156.0522,"EPHEMERIS_TYPE":0,"NORAD_CAT_ID":63301,"ELEMENT_SET_NO":999,"REV_AT_EPOCH":7156,"BSTAR":0.00012291797,"MEAN_MOTION_DOT":0.00000729,"MEAN_MOTION_DDOT":0},{"OBJECT_NAME":"KINEIS-4D","OBJECT_ID":"2025-056C","EPOCH":"2026-07-16T21:30:21.098592","CLASSIFICATION_TYPE":"U","MEAN_MOTION":14.72314646,"ECCENTRICITY":0.00015024,"INCLINATION":97.8991,"RA_OF_ASC_NODE":321.1954,"ARG_OF_PERICENTER":68.4052,"MEAN_ANOMALY":291.7315,"EPHEMERIS_TYPE":0,"NORAD_CAT_ID":63302,"ELEMENT_SET_NO":999,"REV_AT_EPOCH":7150,"BSTAR":0.00012286237,"MEAN_MOTION_DOT":0.00000729,"MEAN_MOTION_DDOT":0},{"OBJECT_NAME":"KINEIS-4A","OBJECT_ID":"2025-056D","EPOCH":"2026-07-17T06:30:42.490368","CLASSIFICATION_TYPE":"U","MEAN_MOTION":14.72287049,"ECCENTRICITY":0.00022324,"INCLINATION":97.9139,"RA_OF_ASC_NODE":321.5121,"ARG_OF_PERICENTER":149.1676,"MEAN_ANOMALY":210.9663,"EPHEMERIS_TYPE":0,"NORAD_CAT_ID":63303,"ELEMENT_SET_NO":999,"REV_AT_EPOCH":7155,"BSTAR":0.00010984739,"MEAN_MOTION_DOT":0.00000646,"MEAN_MOTION_DDOT":0},{"OBJECT_NAME":"KINEIS-4B","OBJECT_ID":"2025-056E","EPOCH":"2026-07-17T07:43:37.966944","CLASSIFICATION_TYPE":"U","MEAN_MOTION":14.72331892,"ECCENTRICITY":0.00054762,"INCLINATION":97.915,"RA_OF_ASC_NODE":321.6192,"ARG_OF_PERICENTER":185.9841,"MEAN_ANOMALY":174.1302,"EPHEMERIS_TYPE":0,"NORAD_CAT_ID":63304,"ELEMENT_SET_NO":999,"REV_AT_EPOCH":7155,"BSTAR":0.00011841975,"MEAN_MOTION_DOT":0.000007,"MEAN_MOTION_DDOT":0}]}
