KINEIS-2D               
1 62930U 25028C   26198.08945923  .00000772  00000+0  12001-3 0  9995
2 62930  97.9271 249.9584 0004768 105.6739 254.4997 14.75772222 77120
KINEIS-2E               
1 62931U 25028D   26197.96437966  .00000672  00000+0  10227-3 0  9992
2 62931  97.8940 248.9626 0002121  93.3506 266.7947 14.77090174 77172
KINEIS-2A               
1 62932U 25028E   26198.11127475  .00000624  00000+0  10410-3 0  9993
2 62932  98.1287 253.5441 0005943  79.2140 280.9737 14.73453376 77011
KINEIS-2B               
1 62934U 25028G   26198.08865443  .00000599  00000+0  99977-4 0  9992
2 62934  97.9653 250.4067 0004778  69.5986 290.5735 14.73453841 77069
KINEIS-4E               
1 63300U 25056A   26198.28841233  .00000702  00000+0  11876-3 0  9991
2 63300  97.9070 321.3535 0002931  82.5627 277.5913 14.72306162 71557
KINEIS-4C               
1 63301U 25056B   26198.30076178  .00000729  00000+0  12292-3 0  9995
2 63301  97.9124 321.6159 0002953 204.0548 156.0522 14.72328110 71565
KINEIS-4D               
1 63302U 25056C   26197.89607753  .00000729  00000+0  12286-3 0  9991
2 63302  97.8991 321.1954 0001502  68.4052 291.7315 14.72314646 71506
KINEIS-4A               
1 63303U 25056D   26198.27132512  .00000646  00000+0  10985-3 0  9993
2 63303  97.9139 321.5121 0002232 149.1676 210.9663 14.72287049 71552
KINEIS-4B               
1 63304U 25056E   26198.32196721  .00000700  00000+0  11842-3 0  9996
2 63304  97.9150 321.6192 0005476 185.9841 174.1302 14.72331892 71557
